ONEWEB-0159             
1 48062U 21025W   25220.86280428 -.00000266  00000+0 -76429-3 0  9995
2 48062  87.8978  22.2431 0001577  97.6103 262.5205 13.13470607212604
ONEWEB-0164             
1 48063U 21025X   25220.92036680 -.00000008  00000+0 -56844-4 0  9996
2 48063  87.8976  22.2415 0001833  92.7820 267.3519 13.13469628212592
ONEWEB-0167             
1 48064U 21025Y   25220.79594981 -.00000205  00000+0 -59695-3 0  9990
2 48064  87.8983  22.2992 0001426  67.4024 292.7256 13.13471155212569
ONEWEB-0166             
1 48065U 21025Z   25220.89498045  .00000309  00000+0  81070-3 0  9991
2 48065  87.8972  22.2312 0001715  97.9976 262.1348 13.13470652212653
ONEWEB-0151             
1 48066U 21025AA  25220.89667155  .00000317  00000+0  83252-3 0  9995
2 48066  87.8977  22.2549 0001749  88.7317 271.4013 13.13470110212599
ONEWEB-0170             
1 48067U 21025AB  25220.90513596  .00000266  00000+0  69388-3 0  9994
2 48067  87.8977  22.2591 0002092  81.9827 278.1540 13.13469976212553
ONEWEB-0168             
1 48068U 21025AC  25220.88989502  .00000272  00000+0  70877-3 0  9998
2 48068  87.8978  22.2433 0001584  94.6865 265.4445 13.13474566212563
ONEWEB-0173             
1 48069U 21025AD  25220.88143368 -.00000019  00000+0 -86181-4 0  9998
2 48069  87.8977  22.2533 0001368  86.0386 274.0900 13.13470477212803
